geographic_terms,original_string,checked,country_name,country_domain,iso2,iso3,un_numeric_code
afghanistan|kabul|kandahar|herat,afghanistan|kabul|kandahar|herat,1,afghanistan,.af,AF,,
åland islands|aland Islands|mariehamm|jomala|finström,åland islands|aland Islands|mariehamm|jomala|finström,1,åland islands,.ax,AX,,
albania|tirana|durres|elbasan,albania|tirana|durres|elbasan,1,albania,.al,AL,,
algeria|algiers|oran|constantine,algeria|algiers|oran|constantine,1,algeria,.dz,DZ,,
american samoa|pago pago,american samoa|pago pago,1,american samoa,.as,AS,,
andorra|andorra la vella,andorra(?! la vella)|andorra la vella,1,andorra,.ad,AD,,
angola|luanda|n'dalatando|nuambo,angola|luanda|n'dalatando|nuambo,1,angola,.ao,AO,,
anguilla,anguilla,1,anguilla,.ai,AI,,
antarctica|antartica|mcmurdo station,antarctica|antartica|mcmurdo station,1,antarctica,.aq,AQ,,
antigua and barbuda|antigua|barbuda,antigua and barbuda|antigua(?! guatamala)|barbuda,1,antigua and barbuda,.ag,AG,,
argentina|buenos aires|córdoba|cordoba|rosario|la plata|mar del plata,argentina|buenos aires|córdoba(?! spain|espana|españa|es)|cordoba(?! spain|espana|españa|es)|rosario|la plata|mar del plata,1,argentina,.ar,AR,,
armenia|yerevan|gyumri|vanadzor,armenia|yerevan|gyumri|vanadzor,,armenia,.am,AM,,
aruba|oranjestad|san nicolaas,aruba|oranjestad|san nicolaas,,aruba,.aw,AW,,
australia|sydney|melbourne|brisbane|perth|adelaide|hobart|darwin|canberra|wollongong|geelong,australia|sydney|melbourne(?! fl|florida)|brisbane|perth|adelaide|hobart|darwin|canberra|wollongong|geelong,,australia,.au,AU,,
austria|vienna|wein|graz|linz|salsburg|innsbruck|klagenfurt am wörthersee,austria|vienna|wein|graz|linz|salsburg|innsbruck|klagenfurt am wörthersee,,austria,.at,AT,,
azerbaijan|bakı|baku|sumqayıt|sumgait|gəncə|ganja|lənkəran|lankaran|mingəçevir|mingachevir,azerbaijan|bakı|baku|sumqayıt|sumgait|gəncə|ganja|lənkəran|lankaran|mingəçevir|mingachevir,,azerbaijan,.az,AZ,,
bahamas|nassau|lucaya,bahamas|nassau|lucaya,,bahamas,.bs,BS,,
bahrain|manama|riffa|muharraq,bahrain|manama|riffa|muharraq,,bahrain,.bh,BH,,
bangladesh|dhaka|chittagong|khulna|sylhet|rajshahi|mymensingh|barisal|rangpur|comilla|narayanganj|gazipur,bangladesh|dhaka|chittagong|khulna|sylhet|rajshahi|mymensingh|barisal|rangpur|comilla|narayanganj|gazipur,,bangladesh,.bd,BD,,
barbados|bridgetown,barbados|bridgetown,,barbados,.bb,BB,,
belarus|minsk|borisov|soligorsk|molodechno|zhodino|slutsk,belarus|minsk|borisov|soligorsk|molodechno|zhodino|slutsk,,belarus,.by,BY,,
belgium|brussels|ghent|gent|antwerp|charleroi|liège|schaerbeek|anderlecht|bruges|namur|leuven|sint jans molenbeek|mons,belgium|brussels|ghent|gent|antwerp|charleroi|liège|schaerbeek|anderlecht|bruges|namur|leuven|sint jans molenbeek|mons,,belgium,.be,BE,,
belize|belize city,belize(?! city)|belize city,,belize,.bz,BZ,,
benin|cotonou|porto novo|parakou|djougou|bohicon|kandi,benin|cotonou|porto novo|parakou|djougou|bohicon|kandi,,benin,.bj,BJ,,
bermuda|saint george,bermuda|saint george,,bermuda,.bm,BM,,
bhutan|thimphu,bhutan|thimphu,,bhutan,.bt,BT,,
bolivia|santa cruz de la sierra|santa cruz|el alto|la paz|cochabamba|oruro|sucre|tarija|potosí|sacaba|quillacollo,bolivia|santa cruz de la sierra|santa cruz(?! ca|california)|el alto|la paz|cochabamba|oruro|sucre|tarija|potosí|sacaba|quillacollo,,bolivia,.bo,BO,,
bonaire|kralendijk,bonaire|kralendijk,,bonaire,.bq,BQ,,
bosnia and herzegovina|bosnia|herzegovina|sarajevo|banja luka|zenica|tuzla|mostar,bosnia and herzegovina|bosnia|herzegovina|sarajevo|banja luka|zenica|tuzla|mostar,,bosnia and herzegovina,.ba,BA,,
botswana|gaborone|francistown|molepolole|serowe|naum|selibe phikwe,botswana|gaborone|francistown|molepolole|serowe|naum|selibe phikwe,,botswana,.bw,BW,,
bouvet island,bouvet island,,bouvet island,.bv,BV,,
brazil|brasil|brazilian|sao paulo|san paulo|so paulo|são paulo|rio de janeiro|brasilia|brasília|salvador|fortaleza|belo horizonte|manaus|curitiba|recife|goiânia|belém|porto alegre|guarulhos|campinas|são luís|são gonçalo|maceió|duque de caxias|campo grande|campina grande|natal|teresina|são bernardo do campo|nova iguaçu|joão pessoa|joao pessoa|joo pessoa|aracaju|araraquara|barueri|florianpolis|goinia|rio grande|so jos dos|aracaju|são josé|florianópolis,(?<![a-z])brazil(?![a-z])|(?<![a-z])brasil(?![a-z])|brazilian|sao paulo|san paulo|so paulo|são paulo|rio de janeiro|brasilia|brasília|(?<![a-z]|[a-z] )salvador(?! [a-z]|[a-z])|fortaleza|belo horizonte|manaus|curitiba|recife|goiânia|belém|porto alegre(?![a-z])|guarulhos|campinas|são luís|são gonçalo|maceió|duque de caxias|campo grande|campina grande|natal|teresina|são bernardo do Campo|nova iguaçu|joão pessoa|joao pessoa|joo pessoa|aracaju|araraquara|barueri|florianpolis|goinia|rio grande|so jos dos|aracaju|são josé|florianópolis,,brazil,.br,BR,,
"virgin islands, british|british virgin islands|road town|spanish town","virgin islands, british|british virgin islands|road town|spanish town",,british virgin islands,.vg,VG,,
brunei darussalam|brunei|bandar seri begawan|kuala belait,brunei darussalam|brunei|bandar seri begawan|kuala belait,,brunei,.bn,BN,,
bulgaria|sofia|plovdiv|varna|burgas|ruse|stara zagora|pleven|sliven|dobrich|shumen,bulgaria|sofia|plovdiv|varna|burgas|ruse|stara zagora|pleven|sliven|dobrich|shumen,,bulgaria,.bg,BG,,
burkina faso|ouagadougou|bobo dioulasso|banfora|koudougou|ouahigouya|kaya|fada n'gourma,burkina faso|ouagadougou|bobo dioulasso|banfora|koudougou|ouahigouya|kaya|fada n'gourma,,burkina faso,.bf,BF,,
burundi|bujumbura|gitega|muyinga|ngozi|ruyigi|kayanza|bururi|rutana|muramvya|makamba,burundi|bujumbura|gitega|muyinga|ngozi|ruyigi|kayanza|bururi|rutana|muramvya|makamba,,burundi,.bi,BI,,
cambodia|phnom penh|siem reap|battambang|serei saophoan|poipet|ta khmau|sihanoukville|samraong|pusat,cambodia|phnom penh|siem reap|battambang|serei saophoan|poipet|ta khmau|sihanoukville|samraong|pusat,,cambodia,.kh,KH,,
cameroon|cameroun|douala|yaoundé|garoua|kousséri|bamenda|maroua|bafoussam|mokolo|ngaoundéré|bertoua|edéa|loum,cameroon|douala|yaoundé|garoua|kousséri|bamenda|maroua|bafoussam|mokolo|ngaoundéré|bertoua|edéa|loum,,cameroon,.cm,CM,,
canada|ontario|quebec|québec|nova scotia|new brunswick|manitoba|british columbia|prince edward island|saskatchewan|alberta|newfoundland and labrador|toronto|montreal|montréal|vancouver|calgary|edmonton|ottawa|winnepeg|winnipeg|quebec city|hamilton|kitchener|halifax|waterloo on|victoria bc,canada|ontario|quebec(?! city)|québec(?! city)|nova scotia|new brunswick(?! nj)|manitoba|british columbia|prince edward island|saskatchewan|alberta|newfoundland and labrador|toronto|montreal|montréal|vancouver|calgary|edmonton|ottawa|winnepeg|winnipeg|quebec city|hamilton(?! [a-z]|[a-z])|kitchener|halifax|waterloo on|victoria bc,,canada,.ca,CA,,
cape verde|praia|mindelo|santa maria|cova figueira,cape verde|praia|mindelo|santa maria|cova figueira,,cape verde,.cv,CV,,
cayman islands,cayman islands,,cayman islands,.ky,KY,,
central african republic|bangui|bimbo|berbérati|carnot|bambari|bouar|bossangoa|bria|bangassou|kaga bandoro,central african republic|bangui|bimbo|berbérati|carnot|bambari|bouar|bossangoa|bria|bangassou|kaga bandoro,,central african republic,.cf,CF,,
chad|n’djaména|moundou|sarh|abéché|kelo|moumra|pala|am timan|bongor ,(?<![a-z])chad(?![a-z])|n’djaména|moundou|sarh|abéché|kelo|moumra|pala|am timan|bongor ,,chad,.td,TD,,
chile|santiago|puente alto|maipú|la florida|viña del mar|antofagasta|valparaíso|las condes|san bernardo|temuco|peñalolén|concepción|rancagua,chile|santiago(?! [a-z]|[a-z])|puente alto|maipú|la florida|viña del mar|antofagasta|valparaíso|las condes|san bernardo|temuco|peñalolén|concepción|rancagua,,chile,.cl,CL,,
china|chn|shenzhen|shen zen|chinashenzhen|shenzhenchina|guangzhou|guangzhouchina|shandong|jinan|henan|zhengzhou|jiangsu|sichuan|chengdu|chengduchina|hebei|shijiazhuang|hunan|changsha|zheijiang|hangzhou|anhui|hefei|hebei|wuhan|wuhanchina|chinawuhan|guangxi|nanjing|chinananjing|nanjingchina|nanning|yunnan|kunming|jiangxi|nanchang|lioning|shenyang|fujian|fuzhou|jincheng|shaanxi|xi'an|xian|xi an|guizhou|guiyang|shanxi|taiyuan|cchongping|heilongjiang|harbin|xingiang|ürümqi|gansu|lanzhou|shanghai|shang hai|shanghaichina|chinashanghai|jilin|changchun|hohhot|beijing|bei jing|beijingchina|chinabeijing|beijinghaidian|tianjin|hainan|haikou|ningxia|yinchaun|qinghai|pudong|bao’an|baoan|chaoyang|haidian|nanhai|binhai|shunde|minhang|baiyun|fengtai|dongguan|foshan|sheyang|qingdao|dalian|zhejiang|guangdong|shantou|ningbo|xiamen|xiamenchina|changzhou|zhuhaichina|zhu haichina|hubei|dian distrinct|hang zhou,(?![a-z])china(?![a-z])|chn|(?<![a-z])shenzhen(?![a-z])|shen zen|chinashenzhen|shenzhenchina|(?<![a-z])guangzhou(?![a-z])|guangzhouchina|shandong|jinan|henan|zhengzhou|jiangsu|sichuan|(?<![a-z])chengdu(?![a-z])|chengduchina|hebei|shijiazhuang|hunan|changsha|zheijiang|(?<!c)hangzhou|anhui|hefei|hebei|(?<![a-z])wuhan(?![a-z])|wuhanchina|chinawuhan|guangxi|(?<![a-z])nanjing(?![a-z])|chinananjing|nanjingchina|nanning|yunnan|kunming|jiangxi|nanchang|lioning|shenyang|fujian|fuzhou|jincheng|shaanxi|xi'an|xian|xi an|guizhou|guiyang|shanxi|taiyuan|cchongping|heilongjiang|harbin|xingiang|ürümqi|gansu|lanzhou|(?<![a-z])shanghai(?![a-z])|shang hai|shanghaichina|chinashanghai|jilin|changchun|hohhot|(?<![a-z])beijing(?![a-z])|bei jing|beijingchina|chinabeijing|beijinghaidian|tianjin|hainan|haikou|ningxia|yinchaun|qinghai|pudong|bao’an|baoan|chaoyang|(?<![a-z])haidian(?![a-z])|nanhai|binhai|shunde|minhang|baiyun|fengtai|dongguan|foshan|sheyang|qingdao|dalian|zhejiang|guangdong|shantou|ningbo|(?<![a-z])xiamen(?![a-z])|xiamenchina|changzhou|zhuhaichina|zhu haichina|hubei|dian district|hang zhou,,china,.cn,CN,|深圳|桂林|杭州|成都|广州|广东深圳|四川成都|北京|中国|上海,
christmas island|flying fish cove,christmas island|flying fish cove,,christmas island,.cx,CX,,
cocos islands|bantam,cocos islands|bantam,,cocos islands,.cc,CC,,
colombia|bogotá|bogota|bogataa|medellin|medellín|cali|barranquilla|cartagena|cúcuta|soledad|ibagué|soacha|bucaramanga,colombia|bogotá|bogota|bogataa|medellin|medellín|cali|barranquilla|cartagena|cúcuta|soledad|ibagué|soacha|bucaramanga,,colombia,.co,CO,,
comoros|moroni|moutsamoudou|fomboni|domoni|tsimbeo,comoros|moroni|moutsamoudou|fomboni|domoni|tsimbeo,,comoros,.km,KM,,
congo republic|congo brazzaville|brazzaville|pointe noire|dolisie|nkayi|impfondo|ouésso|madingou|owando|sibiti|loutété,congo republic|congo brazzaville|brazzaville|pointe noire|dolisie|nkayi|impfondo|ouésso|madingou|owando|sibiti|loutété,,congo,.cg,CG,,
cook islands|avarua,cook islands|avarua,,cook islands,.ck,CK,,
costa rica|san josé|puerto limón|alajuela|liberia|paraíso|puntarenas|san isidro|curridabat|san vicente de moravia ,costa rica|san josé|puerto limón|alajuela|liberia|paraíso|puntarenas|san isidro|curridabat|san vicente de moravia ,,costa rica,.cr,CR,,
croatia|zagreb|rijeka|osijek|zadar|pula|slavonski brod,croatia|zagreb|rijeka|osijek|zadar|pula|slavonski brod,,croatia,.hr,HR,,
cuba|havana|santiago de cuba|camagüey|holguín|guantánamo|villa clara|las tunas|granma|cienfuegos|pinar del río,cuba|havana|santiago de cuba|camagüey|holguín|guantánamo|villa clara|las tunas|granma|cienfuegos|pinar del río,,cuba,.cu,CU,,
curaçao|curacao|willemstad|sint michiel liber,curaçao|curacao|willemstad|sint michiel liber,,curaçao,.cw,CW,,
cyprus|nicosia|limassol|strovolos|larnaca,cyprus|nicosia|limassol|strovolos|larnaca,,cyprus,.cy,CY,,
czech republic|česká republika|czech|czechia|czechrepublic|prague|brno|ostrava|plzeň|liberec|olomouc|ústí nad labem|české budějovice|hradec králové|pardubice,czech republic|česká republika|czech(?![a-z])|czechia|czechrepublic|prague|brno|ostrava|plzeň|liberec|olomouc|ústí nad labem|české budějovice|hradec králové|pardubice,,czech republic,.cz,CZ,,
democratic republic of the congo|dr congo|congo the democratic republic of the|kinshasa|lubumbashi|mbuji-mayi|kisangani|masina|kananga|likasi|kolwezi|tshikapa|beni,democratic republic of the congo|dr congo|congo the democratic republic of the|kinshasa|lubumbashi|mbuji-mayi|kisangani|masina|kananga|likasi|kolwezi|tshikapa|beni,,democratic republic of the congo,.cd,CD,,
denmark|copenhagen|aarhus|odense|aalborg|esberg|randers|kolding|horsens|vejle|roskilde,denmark|copenhagen|aarhus|odense|aalborg|esberg|randers|kolding|horsens|vejle|roskilde,,denmark,.dk,DK,,
djibouti|djibouti city|ali sabieh,djibouti|djibouti city|ali sabieh,,djibouti,.dj,DJ,,
dominica|roseau,dominica(?![a-z])|roseau,,dominica,.dm,DM,,
dominican republic|dominican|santo domingo de guzmán|santiago de los caballeros|santo domingo oeste|santo domingo este|santo domingo norte|san felipe de puerto plata|concepción de la vega|san pedro de macorís|la romana|los alcarrizos|san francisco de macoris,dominican republic|dominican|santo domingo de guzmán|santiago de los caballeros|santo domingo oeste|santo domingo este|santo domingo norte|san felipe de puerto plata|concepción de la vega|san pedro de macorís|la romana|los alcarrizos|san francisco de macoris,,dominican republic,.do,DO,,
ecuador|guayaquil|quito|cuenca|duran|santo domingo ec|machala|manta|loja|portoviejo|quevedo|ibarra,ecuador|guayaquil|quito|cuenca|duran|santo domingo ec|machala|manta|loja|portoviejo|quevedo|ibarra,,ecuador,.ec,EC,,
egypt|cairo|alexandria|giza|shubra el kheima|port said|suez|mansoura|el mahalla el kubra|tanta|faiyum,egypt|cairo|alexandria|giza|shubra el kheima|port said|suez|mansoura|el mahalla el kubra|tanta|faiyum,,egypt,.eg,EG,,
el salvador|san salvador|santa ana sv|soyapango|san miguel sv|santa tecla|mejicanos|apopa|delgado|ahuachapán|ilopango,el salvador|san salvador|santa ana sv|soyapango|san miguel sv|santa tecla|mejicanos|apopa|delgado|ahuachapán|ilopango,,el salvador,.sv,SV,,
equatorial guinea|bata|malabo,equatorial guinea|bata|malabo,,equatorial guinea,.gq,GQ,,
eritrea|asmara|keren|teseney|mendefera|agordat|assab|massawa|adi quala|senafe,eritrea|asmara|keren|teseney|mendefera|agordat|assab|massawa|adi quala|senafe,,eritrea,.er,ER,,
estonia|tallinn|tartu|narva|pärnu|kohtla järve|viljandi|rakvere|maardu|kuressaare|sillamäe,estonia|tallinn|tartu|narva|pärnu|kohtla järve|viljandi|rakvere|maardu|kuressaare|sillamäe,,estonia,.ee,EE,,
ethiopia|addis ababa|mekelle|gondar|adama|awassa|bahir dar|dire dawa|sodo|dessie|jimma,ethiopia|addis ababa|mekelle|gondar|adama|awassa|bahir dar|dire dawa|sodo|dessie|jimma,,ethiopia,.et,ET,,
falkland islands|malvinas,falkland islands|malvinas,,falkland islands,.fk,FK,,
faroe islands|faroe,faroe islands|faroe,,faroe islands,.fo,FO,,
fiji|suva,fiji|suva,,fiji,.fj,FJ,,
finland|helsinki|tampere|turku|oulu|jyväskylä|lahti|kuopio|pori|joensuu|vaasa,finland|helsinki|tampere|turku|oulu|jyväskylä|lahti|kuopio|pori|joensuu|vaasa,,finland,.fi,FI,,
france|paris|marseille|lyon|toulouse|nice|nantes|montpellier|strasbourg|boudeaux|lille|rennes|reims|french riviera|french alps|lyon|sophia antipolis|aix en provence,france|french (?![a-z])|paris|marseille|lyon|toulouse|nice|nantes|montpellier|strasbourg|boudeaux|lille|rennes|reims|french riviera|french alps|lyon|sophia antipolis|aix en provence,,france,.fr,FR,,
french guiana|cayenne|matoury|saint laurent du maroni|kourou,french guiana|cayenne|matoury|saint laurent du maroni|kourou,,french guiana,.gf,GF,,
french polynesia,french polynesia,,french polynesia,.pf,PF,,
french southern territories,french southern territories,,french southern territories,.tf,TF,,
gabon|libreville|mandji|port gentil|masuku|franceville|oyem,gabon|libreville|mandji|port gentil|masuku|franceville|oyem,,gabon,.ga,GA,,
gambia,gambia,,gambia,.gm,GM,,
tbilisi|tbiilisi|batumi|kutaisi|country of georgia,tbilisi|tbiilisi|batumi|kutaisi|country of georgia,,georgia,.ge,GE,,
germany|german|deutschland|berlin|hamburg|munich|münchen|cologne|köln|frankfurt|stuttgart|düsseldorf|dortmund|essen|leipzig|bremen|dresden|trier|hanover|hannover|nuremberg|nürnberg|wuppertal|bonn|münster|mannheim|bavaria|postdam|saarland,germany|german|deutschland|berlin|hamburg|munich|münchen|cologne|köln|frankfurt|stuttgart|düsseldorf|dortmund|essen|leipzig|bremen|dresden|trier|hanover|hannover|nuremberg|nürnberg|wuppertal|bonn|münster|mannheim|bavaria|postdam|saarland,,germany,.de,DE,,
ghana,ghana,,ghana,.gh,GH,,
gibraltar,gibraltar,,gibraltar,.gi,GI,,
greece|athens|thessaloniki|patras|piraeus|larissa|heraklion|peristeri|kallithea|acharnes|kalamaria,greece|athens|thessaloniki|patras|piraeus|larissa|heraklion|peristeri|kallithea|acharnes|kalamaria,,greece,.gr,GR,,
greenland,greenland,,greenland,.gl,GL,,
grenada,grenada,,grenada,.gd,GD,,
guadeloupe,guadeloupe,,guadeloupe,.gp,GP,,
guam,guam,,guam,.gu,GU,,
guatemala,guatemala,,guatemala,.gt,GT,,
guernsey,guernsey,,guernsey,.gg,GG,,
guinea,guinea,,guinea,.gn,GN,,
guinea bissau,guinea bissau,,guinea bissau,.gw,GW,,
guyana,guyana,,guyana,.gy,GY,,
haiti,haiti,,haiti,.ht,HT,,
heard and mcdonald islands,heard and mcdonald islands,,heard and mcdonald islands,.hm,HM,,
honduras,honduras,,honduras,.hn,HN,,
hong kong|kowloon|tsuen wan|yuen long kau hui,hong kong|kowloon|tsuen wan|yuen long kau hui,,hong kong,.hk,HK,,
hungary|budapest,hungary|budapest,,hungary,.hu,HU,,
iceland,iceland,,iceland,.is,IS,,
india|mumbai|delhi|bangalore|hyderbad|ahmedabad|chennai|kolkata|surat|pune|jaipur|lucknow|kanpur|nagpur|indore|thane|bhopal|visakhapatnam|pimpi chinchwad|patna|vadodara|ghaziabad|ludhiana|agra|nashik|ranchi|faridabad|meerut|rajkot|varanasi,india|mumbai|delhi|bangalore|hyderbad|ahmedabad|chennai|kolkata|surat|pune|jaipur|lucknow|kanpur|nagpur|indore|thane|bhopal|visakhapatnam|pimpi chinchwad|patna|vadodara|ghaziabad|ludhiana|agra|nashik|ranchi|faridabad|meerut|rajkot|varanasi,,india,.in,IN,,
indonesia|jakarta|surabaya|bekasi|bandung|medan|depok|tangerang|palembang|semarang|makassar|batam|yogyakarta,indonesia|jakarta|surabaya|bekasi|bandung|medan|depok|tangerang|palembang|semarang|makassar|batam|yogyakarta,,indonesia,.id,ID,,
iran|tehran,iran|tehran,,iran,.ir,IR,,
iraq,iraq,,iraq,.iq,IQ,,
ireland|dublin|belfast|cork|limerick|derry|galway|newtonabbey|bangor|waterford|lisburn|drogheda,ireland|dublin|belfast|cork|limerick|derry|galway|newtonabbey|bangor|waterford|lisburn|drogheda,,ireland,.ie,IE,,
isle of man,isle of man,,isle of man,.im,IM,,
israel|jerusalem|tel aviv|haifa|rishon|petah tikva|ashdod|netanya|beersheba|bnei brak|holon|ramat gan|ashkelon|rehovot|bay yam,israel|jerusalem|tel aviv|haifa|rishon|petah tikva|ashdod|netanya|beersheba|bnei brak|holon|ramat gan|ashkelon|rehovot|bay yam,,israel,.il,IL,,
italy|italia|rome|roma|milan|milano|naples|turin|palmero|genoa|bologna|florence|bari|catania|verona|venice|messina|padua|padova|trieste|parma,italy|italia|rome|roma|milan|milano|naples|turin|palmero|genoa|bologna|florence|bari|catania|verona|venice|messina|padua|padova|trieste|parma,,italy,.it,IT,,
côte d'ivoire|côte divoire|cote divoire|cote d'ivoire|ivory coast|abidjan|bouaké|daloa|yamoussoukro|san pédro|divo|korhogo|anyama|abengourou,côte d'ivoire|côte divoire|cote divoire|cote d'ivoire|ivory coast|abidjan|bouaké|daloa|yamoussoukro|san pédro|divo|korhogo|anyama|abengourou,,ivory coast,.ci,CI,,
jamaica,jamaica,,jamaica,.jm,JM,,
japan|jp|tokyo|kyoto|osaka|nagoya|kanazawa|hiroshima|yokohama|wakayama|sendai|tsukuba|kobe,japan|(?<![a-z])jp(?![a-z])|tokyo|kyoto|osaka|nagoya|kanazawa|hiroshima|yokohama|wakayama|sendai|tsukuba|kobe,,japan,.jp,JP,,
jordan,jordan,,jordan,.jo,JO,,
kazakhstan,kazakhstan,,kazakhstan,.kz,KZ,,
kenya|nairobi,kenya|nairobi,,kenya,.ke,KE,,
kiribati,kiribati,,kiribati,.ki,KI,,
kosovo|kosova|prishtina|prishtine|pristina|prishtinë|priština|prizren|gjilan|gnjilane|pejë|peć|mitrovicë|kosovska|mitrovica|ferizaj|uroševac|gjakovë|đakovica,kosovo|kosova|prishtina|prishtine|pristina|prishtinë|priština|prizren|gjilan|gnjilane|pejë|peć|mitrovicë|kosovska|mitrovica|ferizaj|uroševac|gjakovë|đakovica,,kosovo,.xk,XK,,
kuwait,kuwait,,kuwait,.kw,KW,,
kyrgyzstan,kyrgyzstan,,kyrgyzstan,.kg,KG,,
lao peoples democratic republic|laos,lao peoples democratic republic|laos,,laos,.la,LA,,
latvia,latvia,,latvia,.lv,LV,,
lebanon,lebanon,,lebanon,.lb,LB,,
lesotho,lesotho,,lesotho,.ls,LS,,
liberia,liberia,,liberia,.lr,LR,,
libya,libya,,libya,.ly,LY,,
liechtenstein,liechtenstein,,liechtenstein,.li,LI,,
lithuania,lithuania,,lithuania,.lt,LT,,
luxembourg,luxembourg,,luxembourg,.lu,LU,,
macao,macao,,macao,.mo,MO,,
macedonia,macedonia,,macedonia,.mk,MK,,
madagascar,madagascar,,madagascar,.mg,MG,,
malawi,malawi,,malawi,.mw,MW,,
malaysia|kuala lumpur,malaysia|kuala lumpur,,malaysia,.my,MY,,
maldives,maldives,,maldives,.mv,MV,,
mali,mali,,mali,.ml,ML,,
malta,malta,,malta,.mt,MT,,
marshall islands,marshall islands,,marshall islands,.mh,MH,,
martinique,martinique,,martinique,.mq,MQ,,
mauritania,mauritania,,mauritania,.mr,MR,,
mauritius,mauritius,,mauritius,.mu,MU,,
mayotte|mamoudzou|koungou|dzaoudzi,mayotte|mamoudzou|koungou|dzaoudzi,,mayotte,.yt,YT,,
mexico|mxico|mex|mx|mexico city|méxico city|ciudad de méxico|tijuana|ecatepec|león mx|puebla|ciudad juárez|guadalajara|zapopan|monterrey|ciudad nezahualcóyotl|chihuahua|mérida|naucalpan|cancún|saltillo,(?<!new )mexico(?! city)|(?<!new )méxico(?! city)|mxico|mex|mx|mexico city|méxico city|ciudad de méxico|tijuana|ecatepec|león mx|puebla|ciudad juárez|guadalajara|zapopan|monterrey|ciudad nezahualcóyotl|chihuahua|mérida|naucalpan|cancún|saltillo,,mexico,.mx,MX,,
micronesia|weno,micronesia|weno,,micronesia,.fm,FM,,
moldova,moldova,,moldova,.md,MD,,
monaco,monaco,,monaco,.mc,MC,,
mongolia,mongolia,,mongolia,.mn,MN,,
montenegro,montenegro,,montenegro,.me,ME,,
montserrat,montserrat,,montserrat,.ms,MS,,
morocco,morocco,,morocco,.ma,MA,,
mozambique,mozambique,,mozambique,.mz,MZ,,
myanmar,myanmar,,myanmar,.mm,MM,,
namibia,namibia,,namibia,.na,NA,,
nauru,nauru,,nauru,.nr,NR,,
nepal,nepal,,nepal,.np,NP,,
netherlands|dutch|holland|amsterdam|rotterdam|the hague|den hague|den haag|utrecht|eindhoven|groningen|tilburg|almere|breda|zwolle|willemstad,netherlands|dutch|(?<!new )holland|amsterdam|rotterdam|the hague|den hague|den haag|utrecht|eindhoven|groningen|tilburg|almere|breda|zwolle|willemstad,,netherlands,.nl,NL,,
new caledonia,new caledonia,,new caledonia,.nc,NC,,
new zealand|nz|nzl|auckland|christchurch|wellington|hamilton nz|tauranga|lower hutt|dunedin|palmerston north|napier|hibiscus coast|porirua,new zealand|nz|nzl|auckland|christchurch|wellington|hamilton nz|tauranga|lower hutt|dunedin|palmerston north|napier|hibiscus coast|porirua,,new zealand,.nz,NZ,,
nicaragua,nicaragua,,nicaragua,.ni,NI,,
niger,niger(?![a-z]),,niger,.ne,NE,,
nigeria|lagos,nigeria|lagos,,nigeria,.ng,NG,,
niue,niue,,niue,.nu,NU,,
norfolk island,norfolk island,,norfolk island,.nf,NF,,
north korea|pyongyang|hamhubg|chongjin|nampo|wonsan|sinuiju|tanchon|kaechon|kaesong,north korea|pyongyang|hamhubg|chongjin|nampo|wonsan|sinuiju|tanchon|kaechon|kaesong,,north korea,.kp,KP,,
northern mariana islands,northern mariana islands,,northern mariana islands,.mp,MP,,
norway,norway,,norway,.no,NO,,
oman,oman,,oman,.om,OM,,
pakistan|karachi|lahore|faisalabad|rawalpindi|gujranwala|peshawar|multan|hyderabad|islamabad|quetta|bahawalpur|argodha|sialkot,pakistan|karachi|lahore|faisalabad|rawalpindi|gujranwala|peshawar|multan|hyderabad|islamabad|quetta|bahawalpur|argodha|sialkot,,pakistan,.pk,PK,,
palau,palau,,palau,.pw,PW,,
palestine|gaza,palestine|gaza,,palestine,.ps,PS,,
panama|panamá,panama(>! city)|panamá(>! city),,panamá,.pa,PA,,
papua new guinea,papua new guinea,,papua new guinea,.pg,PG,,
paraguay,paraguay,,paraguay,.py,PY,,
peru|perú|lima|arequipa,peru|perú|lima|arequipa,,perú,.pe,PE,,
philippines,philippines,,philippines,.ph,PH,,
pitcairn,pitcairn,,pitcairn,.pn,PN,,
poland|warsaw|kraków|krakow|cracow|łódź|wrocaw|wrocław|poznań|gdańsk|szczecin|bydgoszcz|lublin|białystok|katowice,poland|warsaw|kraków|krakow|cracow|łódź|wrocaw|wrocław|poznań|gdańsk|szczecin|bydgoszcz|lublin|białystok|katowice,,poland,.pl,PL,,
portugal|lisboa|lisbon|azores|porto|faro|porto alegre pt|porto velho,portugal|lisboa|lisbon|azores|(?<![a-z])porto(?! [a-z]|[a-z])|faro|porto alegre pt|porto velho,,portugal,.pt,PT,,
puerto rico,puerto rico,,puerto rico,.pr,PR,,
qatar,qatar,,qatar,.qa,QA,,
réunion,réunion,,réunion,.re,RE,,
romania|bucharest|cluj napoca,romania|bucharest|cluj napoca,,romania,.ro,RO,,
russia|russian|russian federation|moscow|st petersburg|saint petersburg|novosibirsk|yekaterinburg|kazan|nizhny novgorod|chelyabinsk|samara|omsk|rostov on don|simferopol|sevastopol|kaliningrad,(?<![a-z])russian(?! federation)|(?<![a-z])russia|moscow|st petersburg|saint petersburg|novosibirsk|yekaterinburg|kazan|nizhny novgorod|chelyabinsk|samara|omsk|rostov on don|simferopol|sevastopol|kaliningrad,,russian federation,.ru,RU,,
rwanda,rwanda,,rwanda,.rw,RW,,
saint barthélemy|gustavia,saint barthélemy|gustavia,,saint barthélemy,.bl,BL,,
saint helena,saint helena,,saint helena,.sh,SH,,
saint kitts and saint nevis|basseterre st. kitts,saint kitts and saint nevis|basseterre st. kitts,,saint kitts and saint nevis,.kn,KN,,
saint lucia,saint lucia,,saint lucia,.lc,LC,,
saint martin,saint martin,,saint martin,.mf,MF,,
saint pierre and miquelon,saint pierre and miquelon,,saint pierre and miquelon,.pm,PM,,
saint vincent and grenadines|kingstown,saint vincent and grenadines|kingstown,,saint vincent and grenadines,.vc,VC,,
samoa|apia,samoa|apia,,samoa,.ws,WS,,
san marino,san marino,,san marino,.sm,SM,,
são tomé and príncipe,são tomé and príncipe,,são tomé and príncipe,.st,ST,,
saudi arabia|riyadh|jeddah|sana'a|dubai|makkah|kuwait city|abu dhabi|dammam|sharjah,saudi arabia|riyadh|jeddah|sana'a|dubai|makkah|kuwait city|abu dhabi|dammam|sharjah,,saudi arabia,.sa,SA,,
senegal,senegal,,senegal,.sn,SN,,
serbia,serbia,,serbia,.rs,RS,,
seychelles,seychelles,,seychelles,.sc,SC,,
sierra leone,sierra leone,,sierra leone,.sl,SL,,
singapore,singapore,,singapore,.sg,SG,,
sint maarten,sint maarten,,sint maarten,.sx,SX,,
slovak republic|slovakia|bratislava|košice|prešov|žilina|banská bystrica|nitra|trnava|trenčín,slovak republic|slovakia|bratislava|košice|prešov|žilina|banská bystrica|nitra|trnava|trenčín,,slovakia,.sk,SK,,
slovenia|ljubljana,slovenia|ljubljana,,slovenia,.si,SI,,
solomon islands,solomon islands,,solomon islands,.sb,SB,,
somalia,somalia,,somalia,.so,SO,,
south africa|johannesburg|cape town|durban|pretoria|port elizabeth|vereeniging|soshanguve|bloemfontein|pietermaritzburg,south africa|johannesburg|cape town|durban|pretoria|port elizabeth|vereeniging|soshanguve|bloemfontein|pietermaritzburg,,south africa,.za,ZA,,
south georgia and south sandwich islands|south georgia|south sandwich islands|south sandwich|sandwich islands,south georgia and south sandwich islands|south georgia|south sandwich islands|south sandwich|sandwich islands,,south georgia and south sandwich islands,.gs,GS,,
south korea|rep of korea|republic of korea|korea republic|korean|seoul|seuol|busan|incheon|daegu|daejeon|gwangju|suwom|ulsan|changwon|goyang|seongnam|gyeonggi,south korea|rep of korea|republic of korea|korea republic|korean|seoul|seuol|busan|incheon|daegu|daejeon|gwangju|suwom|ulsan|changwon|goyang|seongnam|gyeonggi,,south korea,.kr,KR,,
south sudan,south sudan,,south sudan,.ss,SS,,
spain|españa|espana|espaa|madrid|barcelona|valencia|seville|sevillabilbao|malaga|málaga|oviedo|gijón|avilés|alicante|elche|las palmas|zaragoza|murcia|tenerife|granada|vigo|cádiz|catalonia|galicia|mallorca|ibiza|zaragoza|catalunya|basque|san sebastián|córdoba spain|pamplona,spain|españa|espana|espaa|madrid|barcelona(?! ve)|valencia(?! ve)|seville|sevillabilbao|malaga|málaga|oviedo|gijón|avilés|alicante|elche|las palmas|zaragoza|murcia|tenerife|granada|vigo|cádiz|catalonia|galicia|mallorca|ibiza|zaragoza|catalunya|basque|san sebastián|córdoba spain|córdoba es|córdoba españa|pamplona,,spain,.es,ES,,
sri lanka|srilanka,sri lanka|srilanka,,sri lanka,.lk,LK,,
sudan,sudan,,sudan,.sd,SD,,
suriname,suriname,,suriname,.sr,SR,,
svalbard|jan mayen|longyearbyen,svalbard|jan mayen|longyearbyen,,svalbard,.sj,SJ,,
swaziland,swaziland,,swaziland,.sz,SZ,,
sweden|stockholm|göteborg|gothenberg|malmö|malmo|uppsala|upplands väsby|västerås|örebro|linköping|helsingborg|eskilstuna|umeå,sweden|stockholm|göteborg|gothenberg|malmö|malmo|uppsala|upplands väsby|västerås|örebro|linköping|helsingborg|eskilstuna|umeå,,sweden,.se,SE,,
switzerland|zürich|zurich|zrich|geneva|basel|laussane|bern|winterthur|lucerne|st gallen|lugano|biel|bienne,switzerland|zürich|zurich|zrich|geneva|basel|laussane|bern|winterthur|lucerne|st gallen|lugano|biel|bienne,,switzerland,.ch,CH,,
syrian arab republic|syria,syrian arab republic|syria,,syria,.sy,SY,,
taiwan|taipei,taiwan|taipei,,taiwan,.tw,TW,,
tajikistan,tajikistan,,tajikistan,.tj,TJ,,
tanzania,tanzania,,tanzania,.tz,TZ,,
thailand|bangkok|nonthaburi|pak kret|hat yai|chaophraya surasak|nakhon ratchasima|udon thani|chiang mai|surat thani|khon kaen,thailand|bangkok|nonthaburi|pak kret|hat yai|chaophraya surasak|nakhon ratchasima|udon thani|chiang mai|surat thani|khon kaen,,thailand,.th,TH,,
timor leste,timor leste,,timor-leste,.tl,TL,,
togo,togo,,togo,.tg,TG,,
tokelau,tokelau,,tokelau,.tk,TK,,
tonga,tonga,,tonga,.to,TO,,
trinidad and tobago,trinidad and tobago,,trinidad and tobago,.tt,TT,,
tunisia,tunisia,,tunisia,.tn,TN,,
turkey|trkiye|türkiye|istanbul|estambul|ankara|i̇zmir|izmur|bursa|adana|gaziantep|konya|antalya|kayseri|mersin,turkey|trkiye|türkiye|istanbul|estambul|ankara|i̇zmir|izmur|bursa|adana|gaziantep|konya|antalya|kayseri|mersin,,turkey,.tr,TR,,
turkmenistan,turkmenistan,,turkmenistan,.tm,TM,,
turks and caicos islands,turks and caicos islands,,turks and caicos islands,.tc,TC,,
tuvalu,tuvalu,,tuvalu,.tv,TV,,
uganda|kampala|nansana|kira|ssabagabo|mbarara|mukono|njeru|gulu|lugazi|mubende|masaka,uganda|kampala|nansana|kira|ssabagabo|mbarara|mukono|njeru|gulu|lugazi|mubende|masaka,,uganda,.ug,UG,,
ukraine|ukrane|kyiv|kiev|kharkiv|odesa|dnepr|dnipro|donetsk|zaporizhzhia|zaporozhye|lviv|kryvyi rih|mykolaiv|mariupol|luhansk,ukraine|ukrane|kyiv|kiev|kharkiv|odesa|dnepr|dnipro|donetsk|zaporizhzhia|zaporozhye|lviv|kryvyi rih|mykolaiv|mariupol|luhansk,,ukraine,.ua,UA,,
united arab emirates|emirates|uae|dubai|abu dhabi|sharjah|al ain|ajman|rak city|fujairah|umm al quwain|dibba al fujairah|khor fakkan,united arab emirates|emirates|uae|dubai|abu dhabi|sharjah|al ain|ajman|rak city|fujairah|umm al quwain|dibba al fujairah|khor fakkan,,united arab emirates,.ae,AE,,
united kingdom|uk|u k|england|scotland|wales|northern ireland|great britian|britian|british|london|manchester|birmingham|liverpool|nottingham|sheffield|bristol|glasgow|leicester|leeds|edinburgh|cardiff|brighton|newcastle upon tyne,united kingdom|(?<![a-z])uk(?![a-z])|u k|england|scotland|wales|northern ireland|great britian|britian|british|london|manchester|birmingham|liverpool|nottingham|sheffield|bristol|glasgow|leicester|leeds|edinburgh|cardiff|brighton|newcastle upon tyne,,united kingdom,.gb,GB,,
"united states|usa|alabama|alaska|arizona|arkansas|california|colorado|connecticut|delaware|florida|georgia|hawaii|idaho|illinois|indiana|iowa|kansas|kentucky|louisiana|maine|maryland|massachusetts|michigan|minnesota|mississippi|missouri|montana|nebraska|nevada|new hampshire|new jersey|new mexico|new york|north carolina|north dakota|ohio|oklahoma|oregon|pennsylvania|rhode island|south carolina|south dakota|tennessee|texas|utah|vermont|virginia|washington|west virginia|wisconsin|wyoming|ny|nyc|tx|new york city|albany|manhattan|brooklyn|bronx|los angeles|la|chicago|houston|phoenix|philadelphia|phila|philly|san antonio|san diego|dallas|austin|san jose|fort worth|jacksonville|columbus|charlotte|indianapolis|san francisco|sf|oakland|bay area|east bay|silicon valley|seattle|denver|washington dc|washington d.c|dc|district of columbia|boston|el paso|nashville|oklahoma city|las vegas|detroit|portland|memphis|milwaukee|baltimore|albuquerque|mesa az|fresno|sacramento|atlanta|kansas city|colorado springs co|raleigh|omaha|miami|minneapolis|twin cities|tampa|arlington|wichita|new orleans|cal|cape cod|cleveland|pittsburgh|salt lake|salt lake|st louis|saint louis|honolulu|palo alto|socal|merica|lebanon nh|holland mo|panama city fl|waltham ma|walnut creek ca|sunnyvale ca|tempe|cambridge ma|redmond wa|boulder co|ann arbor|orlando fl|madison wi|durham nc|bellevue wa|cincinnati oh|richmond va|mountain view|charleston sc|charlottesville va|grand rapids mi|chapel hill nc|knoxville tn|boise id|providence ri|fort collins co|champaign il|urbana il|greenville sc|kirkland wa|princeton nj|somerville ma|chattanooga tn|lexington ky|new haven ct|blacksburg va|asheville nc|lincoln ne|eugene or|des moines ia|jersey city nj|bellingham wa|spokane wa|lansing mi|scottsdale az|college park pa|reston va|ames ia|bloomington in|dayton oh|college park md|tacoma wa|worcester ma|evanston il|fairfax va|herndon va|bethesda md|saint paul mn|burlington vt|fort lauderdale fl|hillsboro or|east lansing mi|lancaster pa|menlo park|santa clara ca|orange county ca|santa barbara ca|santa monica ca|san mateo ca|redwood city ca|san luis obispo ca|long beach ca|st paul mn|overland park ks|silver spring md|little rock ar|san ramon ca|boca raton fl|huntington beach ca|west lafayette in|sioux falls sd|falls church va|los alamos nm|santa fe nm|palm beach fl|winston salem nc|newport beach ca|oak ridge tn|culver city ca|foster city ca|green bay wi|santa rosa ca|new brunswick nj|san fransisco|santa ana ca|st george ut|union city ca|cedar rapids ia|winter park fl|fort myers fl|state college pa|los gatos ca|fort wayne in|los altos ca|eau claire wi|west chester pa|berkeley ca|irvine ca|louisville ky|tucson az|cary nc|fremont ca|huntsville al|pasadena ca|redlands ca|gainesville fl|provo ut|reno nv|stanford ca|tulsa ok|bozeman mt|columbia sc|chandler az|springfield mo|livermore ca|hoboken nj|rochester mn|beaverton or|davis ca|rockville md|olympia wa|tallahassee fl|columbia mo|fargo nd|lawrence ks|hartford ct|alpharetta ga|gilbert az|greensboro nc|riverside ca|ashburn va|norfolk va|alameda ca|harrisburg pa|wayne in|broomfield co|mclean va|pleasanton ca|chico ca|kalamazoo mi|missoula mt|wilmington nc|columbia md|sarasota fl|fayetteville ar|anaheim ca|norman ok|savannah ga|akron oh|apex nc|portsmouth nh|bentonville ar|everett wa|nashua nh|wilmington de|anchorage ak|annapolis md|logan ut|richland wa|gaithersburg md|franklin tn|naperville il|cupertino ca|san luis obispo ca|amherst ma|tucson az|golden co|longmont co|stamford ct
",united states|usa|alabama|alaska|arizona|arkansas|california|(?<![a-z])colorado(?! [a-z]|[a-z])|connecticut|delaware|florida|(?<![a-z]|[a-z] )georgia(?! [a-z]|[a-z])|hawaii|idaho|illinois|indiana|iowa|kansas(?! [a-z])|kentucky|(?<![a-z])louisiana(?![a-z])|maine|maryland|massachusetts|michigan|minnesota|mississippi|missouri|montana|nebraska|nevada|new hampshire|new jersey|new mexico|new york(?! [a-z])|north carolina|north dakota|ohio|oklahoma(?! [a-z])|oregon|pennsylvania|rhode island|south carolina|south dakota|tennessee|texas|utah|vermont|virginia|washington(?! [a-z])|west virginia|wisconsin|wyoming|(?<![a-z])ny(?![a-z])|(?<![a-z])nyc(?![a-z])|(?<![a-z])tx(?![a-z])|new york city|albany|manhattan|brooklyn|bronx|los angeles|(?<![a-z]|[a-z] )la(?! [a-z]|[a-z])|chicago|houston|phoenix|philadelphia|phila|philly|san antonio|san diego|dallas|austin|san jose|fort worth|jacksonville|columbus|charlotte|indianapolis|(?<![a-z])san francisco(?![a-z])|sf|oakland|bay area|east bay|silicon valley|seattle|denver|washington dc|washington d.c|(?<![a-z])dc(?![a-z])|district of columbia|boston|el paso|nashville|oklahoma city|las vegas|detroit|portland|memphis|milwaukee|baltimore|albuquerque|mesa az|fresno ca|sacramento|atlanta|kansas city|colorado springs co|raleigh|omaha|miami|minneapolis|twin cities|tampa|arlington|wichita|new orleans|nola|cal|cape cod|cleveland|pittsburgh|salt lake|(?<![a-z])st louis(?![a-z])|(?<![a-z])saint louis(?![a-z])|honolulu|socal|(?<![a-z])merica(?![a-z])|lebanon nh|holland mo|panama city fl|waltham ma|walnut creek ca|menlo park ca|sunnyvale ca|tempe|cambridge ma|redmond wa|boulder co|ann arbor|orlando fl|madison wi|durham nc|bellevue wa|cincinnati oh|richmond va|mountain view|charleston sc|charlottesville va|grand rapids mi|chapel hill nc|knoxville tn|boise id|providence ri|fort collins co|champaign il|urbana il|greenville sc|kirkland wa|princeton nj|somerville ma|chattanooga tn|lexington ky|new haven ct|blacksburg va|asheville nc|lincoln ne|eugene or|des moines ia|jersey city nj|bellingham wa|spokane wa|lansing mi|scottsdale az|college park pa|reston va|ames ia|bloomington in|dayton oh|college park md|tacoma wa|worcester ma|evanston il|fairfax va|herndon va|bethesda md|saint paul mn|burlington vt|fort lauderdale fl|hillsboro or|east lansing mi|lancaster pa|menlo park|santa clara ca|orange county ca|santa barbara ca|santa monica ca|san mateo ca|redwood city ca|san luis obispo ca|long beach ca|st paul mn|overland park ks|silver spring md|little rock ar|san ramon ca|boca raton fl|huntington beach ca|west lafayette in|sioux falls sd|falls church va|los alamos nm|santa fe nm|palm beach fl|winston salem nc|newport beach ca|oak ridge tn|culver city ca|foster city ca|green bay wi|santa rosa ca|new brunswick nj|san fransisco|santa ana ca|st george ut|union city ca|cedar rapids ia|winter park fl|fort myers fl|state college pa|los gatos ca|fort wayne in|los altos ca|eau claire wi|west chester pa|berkeley ca|irvine ca|louisville ky|tucson az|cary nc|fremont ca|huntsville al|pasadena ca|redlands ca|gainesville fl|provo ut|reno nv|stanford ca|tulsa ok|bozeman mt|columbia sc|chandler az|springfield mo|livermore ca|hoboken nj|rochester mn|beaverton or|davis ca|rockville md|olympia wa|tallahassee fl|columbia mo|fargo nd|lawrence ks|hartford ct|alpharetta ga|gilbert az|greensboro nc|riverside ca|ashburn va|norfolk va|alameda ca|harrisburg pa|wayne in|broomfield co|mclean va|pleasanton ca|chico ca|kalamazoo mi|missoula mt|wilmington nc|columbia md|sarasota fl|fayetteville ar|anaheim ca|norman ok|savannah ga|akron oh|apex nc|portsmouth nh|bentonville ar|everett wa|nashua nh|wilmington de|anchorage ak|annapolis md|logan ut|richland wa|gaithersburg md|franklin tn|naperville il|cupertino ca|san luis obispo ca|amherst ma|(?<![a-z])palo alto(?![a-z])|tucson az|golden co|longmont co|stamford ct,,united states,.us,US,,
uruguay|montevideo|salto|ciudad de la costa|paysandú|las piedras|rivera|moldonado|tacuarembó|melo|mercedes,uruguay|montevideo|salto|ciudad de la costa|paysandú|las piedras|rivera|moldonado|tacuarembó|melo|mercedes,,uruguay,.uy,UY,,
"virgin islands, u s|virgin islands, us|us virgin islands|saint croix|charlotte amalie","virgin islands, u s|virgin islands, us|us virgin islands|saint croix|charlotte amalie",,us virgin islands,.vi,VI,,
uzbekistan|tashkent|samarqand|fergana|namangan|andijan|nukus|bukhara|qarshi|kokand|margilan,uzbekistan|tashkent|samarqand|fergana|namangan|andijan|nukus|bukhara|qarshi|kokand|margilan,,uzbekistan,.uz,UZ,,
vanuatu|port villa|luganville,vanuatu|port villa|luganville,,vanuatu,.vu,VU,,
holy see|vatican,holy see|vatican,,vatican,.va,VA,,
venezuela|caracas|maracaibo|valencia ve|barquisimeto|maracay|cuidad guayana|barcelona ve|maturín|cumaná|petare,venezuela|caracas|maracaibo|valencia ve|barquisimeto|maracay|cuidad guayana|barcelona ve|maturín|cumaná|petare,,venezuela,.ve,VE,,
vietnam|vit nam|viet nam|việt nam|ho chi minh city|ho chi minh|hồ chí minh|hanoi|ha noi|hà nội|thanh hoa|nghe an|dong nai|binh duong|hai phong|haiphong|hai duong|bien hoa|can tho,vietnam|vit nam|viet nam|việt nam|ho chi minh city|ho chi minh(?! city)|hồ chí minh|hanoi|ha noi|hà nội|thanh hoa|nghe an|dong nai|binh duong|hai phong|haiphong|hai duong|bien hoa|can tho,,vietnam,.vn,VN,,
wallis and futuna|wallis|futuna|mata utu,wallis and futuna|wallis|futuna|mata utu,,wallis and futuna,.wf,WF,,
western sahara|laayoun|ad dakhla|villa cisneros|smara|semara,western sahara|laayoun|ad dakhla|villa cisneros|smara|semara,,western sahara,.eh,EH,,
yemen|sana'a|ta'izz|al hudaydah|aden|ibb|dhamar|mukalla|seiyun|zinjibar|sayyan,yemen|sana'a|ta'izz|al hudaydah|aden|ibb|dhamar|mukalla|seiyun|zinjibar|sayyan,,yemen,.ye,YE,,
zambia|lusaka|kitwe|ndola|kabwe|chingola|mufulira|livingstone|luanshya,zambia|lusaka|kitwe|ndola|kabwe|chingola|mufulira|livingstone|luanshya,,zambia,.zm,ZM,,
zimbabwe|harare|bulawayo|chitungwiza|muture|epworth|sweru|kwekwe|kadoma|masvingo|chinhoyi,zimbabwe|harare|bulawayo|chitungwiza|muture|epworth|sweru|kwekwe|kadoma|masvingo|chinhoyi,,zimbabwe,.zw,ZW,,